#cP2016  7 23  0  0  0.00000000      96 ORBIT IGb08 HLM  IGS
## 1906 518400.00000000   900.00000000 57592 0.0000000000000
+   32   G01G02G03G04G05G06G07G08G09G10G11G12G13G14G15G16G17
+        G18G19G20G21G22G23G24G25G26G27G28G29G30G31G32  0  0
+          0  0  0  0  0  0  0  0  0  0  0  0  0  0  0  0  0
+          0  0  0  0  0  0  0  0  0  0  0  0  0  0  0  0  0
+          0  0  0  0  0  0  0  0  0  0  0  0  0  0  0  0  0
++         2  2  2  0  2  2  2  2  2  2  2  2  2  2  2  2  2
++         2  2  2  2  2  2  2  2  2  2  2  2  2  2  2  0  0
++         0  0  0  0  0  0  0  0  0  0  0  0  0  0  0  0  0
++         0  0  0  0  0  0  0  0  0  0  0  0  0  0  0  0  0
++         0  0  0  0  0  0  0  0  0  0  0  0  0  0  0  0  0
%c G  cc GPS ccc cccc cccc cccc cccc ccccc ccccc ccccc ccccc
%c cc cc ccc ccc cccc cccc cccc cccc ccccc ccccc ccccc ccccc
%f  1.2500000  1.025000000  0.00000000000  0.000000000000000
%f  0.0000000  0.000000000  0.00000000000  0.000000000000000
%i    0    0    0    0      0      0      0      0         0
%i    0    0    0    0      0      0      0      0         0
/* FINAL ORBIT COMBINATION FROM WEIGHTED AVERAGE OF:        
/* cod emr esa gfz grg jpl mit ngs sio                      
/* REFERENCED TO IGS TIME (IGST) AND TO WEIGHTED MEAN POLE: 
/* PCV:IGS08_1904 OL/AL:FES2004  NONE     Y  ORB:CMB CLK:CMB
*  2016  7 23  1 30  0.00000000
PG01  -6654.668002  18235.176686 -18107.069159     27.819552  5  3  4 117       
PG02  21771.139676 -14819.717165   1167.016833    573.564384  8  8  5 115       
PG03   5292.696113  18142.135601 -18658.369886    -75.123758  7  5  7 111       
PG04 -23683.376305  -6327.943665  10323.591181 999999.999999
PG05  14566.157727  -8706.818635  20407.900189   -103.490543  5  8  3 120       
PG06  23360.766689  -3997.444151 -11984.331712    222.325981  6  7  8 130       
PG07  10446.912070  11425.583468  21765.411131    440.133044  5  4  5 105       
PG08  -6181.121325  24129.677843   9208.833795    -43.783448  8  3  7 108       
PG09   7436.047718  23356.575260  10191.447398    172.587464  5  4  5 110       
PG10 -24204.001149  -9908.824401  -4830.024849    -70.465857  5  6  7 113       
PG11  -7458.127989  23312.462081 -10853.482852   -656.801937  6  8  5 127       
PG12  -1996.713505 -17196.406204 -20342.577935    385.903894  6  6  6  95       
PG13  12301.197312 -18185.616765  14884.518934    -32.890818  9  5  6 103       
PG14 -15098.512566    820.473661 -21566.360220    -25.995549  5  5  8 137       
PG15   3874.916801 -25012.462847   7303.469315   -320.469397  9  6  6 103       
PG16 -14550.699483   6863.762212  21107.508718     -3.170246 10  9  6 122       
PG17  13760.583055   8194.179410 -20893.741754   -203.843518  8  6  6 111       
PG18 -19658.086755 -16708.462782   7376.537600    539.341125  9  9  6 110       
PG19  15198.322193  -2635.260384 -21909.254724   -524.781097  9  8  9  92       
PG20  -2476.494582 -17473.438405  19690.947953    425.796986  4  6  4  85       
PG21 -13456.128426 -10108.710240  21341.789292   -528.953031  6  8  7 131       
PG22  -3663.083894  15836.584205 -20753.368959    290.235471  9  6  7 105       
PG23   1554.014433  26209.117281   1989.376275   -183.229727  8  7  6 120       
PG24   9988.398938 -19100.979869 -15443.489504    -20.572759  8  6  8 120       
PG25 -14358.140290 -18389.294395 -12999.720544   -213.391064  7  6  6  92       
PG26 -21697.381701     84.051032  15343.260280   -430.150506  7  9  5 110       
PG27 -12125.421982  15298.405519  17889.411256    117.837855  7  6  6 123       
PG28  22706.862092  13435.993559  -2587.210059    539.142204  7  7  7 100       
PG29  -4194.792892 -24925.856067   8219.000446    655.046864  6  4  7  81       
PG30  18514.189036   5402.047360  18304.803459    141.280236  4  6  6 106       
PG31 -24461.143305   6467.115401  -8568.108050    257.452881  8  8  7 122       
PG32 -14828.679949  -6430.474272 -21064.046756    -56.249257  5  6  8 129       
*  2016  7 23  1 45  0.00000000
PG01  -8409.976414  19128.170206 -16340.646360     27.820660  5  2  4 117       
PG02  21895.591233 -14499.807951  -1677.709280    573.560867  8  8  5 126       
PG03   3285.642720  17207.156131 -19959.417486    -75.126394  7  5  7 123       
PG04 -24518.224034  -6982.830513   7690.601868 999999.999999
PG05  16550.405367  -7563.828443  19343.875249   -103.488374  6  9  4 120       
PG06  22190.781895  -3034.534611 -14270.028960    222.330836  6  6  8 128       
PG07   8324.810094  12681.778471  21948.515979    440.130646  5  4  5 107       
PG08  -6449.510469  22947.671702  11720.260552    -43.784991  8  3  7 121       
PG09   7227.851531  24387.093139   7599.324607    172.593961  5  4  5 110       
PG10 -24434.854520 -10314.037589  -2016.648177    -70.472107  5  6  7 106       
PG11  -8381.702615  23930.801025  -8436.435229   -656.803388  7  7  6 124       
PG12     37.444479 -16027.393777 -21358.159936    385.904613  6  6  5 105       
PG13  12309.579211 -16347.967935  16855.003259    -32.892946  9  6  5  95       
PG14 -15000.636725  -1703.510758 -21597.055634    -25.997268  6  5  7 137       
PG15   4311.382588 -24037.119445   9874.382107   -320.471151  9  6  7 113       
PG16 -16523.454885   5567.691199  20048.633702     -3.168298 10  9  6 126       
PG17  13661.615284  10586.178973 -19891.398712   -203.843313  7  6  6 119       
PG18 -18699.434692 -16571.618064   9908.578153    539.344814  9  8  6  99       
PG19  15053.522509   -179.626883 -22137.784626   -524.780974  9  8  9 104       
PG20   -276.622024 -16655.921171  20532.254406    425.798823  4  6  4  88       
PG21 -11546.904332 -11422.126694  21788.907032   -528.954569  6  7  7 130       
PG22  -5885.850575  14793.322308 -21017.671944    290.227224  8  6  6 111       
PG23   1221.506939  26265.423153   -860.400344   -183.231080  8  7  6 121       
PG24  11487.879301 -19819.172954 -13326.673490    -20.572887  8  6  8 128       
PG25 -12893.208174 -17768.286262 -15214.263818   -213.397378  7  6  5  65       
PG26 -23055.971010   -840.066756  13192.484168   -430.159142  7  8  5 115       
PG27 -12334.423543  13161.083167  19395.452794    117.841871  7  6  6 122       
PG28  22781.778490  13688.112990    318.942558    539.144097  6  7  6 102       
PG29  -3984.219298 -25702.943141   5475.390552    655.046201  5  4  6  91       
PG30  16660.015598   6540.332790  19654.670064    141.282196  5  5  6 105       
PG31 -23575.345612   5746.424844 -11118.136694    257.451254  7  7  7 125       
PG32 -14843.977107  -8795.045601 -20182.614290    -56.259282  5  5  8 135       
*  2016  7 23  2  0  0.00000000
PG01  -9940.745215  19988.575664 -14291.946185     27.821770  6  2  4 105       
PG02  21781.068493 -13986.046402  -4492.704499    573.557077  7  8  5 114       
PG03   1116.610596  16324.101138 -20916.880893    -75.129014  7  5  7 119       
PG04 -25113.299023  -7454.382587   4926.230218 999999.999999
PG05  18460.497133  -6578.964726  17946.886218   -103.486254  6  9  5 120       
PG06  20873.663520  -1868.913319 -16310.056039    222.335620  5  6  8 127       
PG07   6269.653229  14051.525134  21759.048921    440.128113  6  4  6 106       
PG08  -6806.706172  21510.174314  14030.031439    -43.786420  8  3  6 127       
PG09   7042.399138  25127.507700   4876.206977    172.600443  6  4  5 102       
PG10 -24395.310108 -10574.085378    831.290982    -70.478322  5  6  6 124       
PG11  -9130.817785  24357.113823  -5876.855859   -656.804306  8  5  7 129       
PG12   2219.895001 -14932.745423 -22012.082775    385.905311  6  7  5 102       
PG13  12412.724756 -14304.775222  18533.837997    -32.895255  8  6  4 114       
PG14 -15033.230314  -4209.079076 -21247.227205    -25.998955  7  5  7 130       
PG15   4835.408022 -22803.728497  12271.092371   -320.472207  9  7  7 112       
PG16 -18441.251977   4455.435573  18645.149408     -3.166262 10  9  6 122       
PG17  13685.878962  12841.908291 -18538.574234   -203.842940  6  6  6 112       
PG18 -17488.237939 -16373.141874  12276.092792    539.348587  8  8  5  89       
PG19  15043.837775   2288.382139 -21994.332550   -524.780786  9  8  8 100       
PG20   2029.293730 -15915.319872  21015.430783    425.800559  5  6  3  96       
PG21  -9681.739780 -12849.020132  21885.967456   -528.954513  5  7  6 132       
PG22  -8160.950321  13848.831322 -20912.349781    290.218693  8  7  5 107       
PG23    859.823664  26014.598284  -3694.918982   -183.232526  8  8  6 122       
PG24  12748.191210 -20460.270725 -10979.015802    -20.573189  9  6  8 121       
PG25 -11182.624535 -17131.380809 -17171.348065   -213.403638  7  6  5  87       
PG26 -24227.054012  -1587.093384  10815.090048   -430.167762  6  8  6 111       
PG27 -12672.105205  10887.660559  20564.965254    117.845827  7  6  6 118       
PG28  22585.016772  13771.791829   3219.680817    539.146950  4  6  6  92       
PG29  -3804.336489 -26174.326393   2637.749726    655.045654  5  4  6 118       
PG30  14751.559654   7841.647377  20667.179113    141.284195  5  5  5 112       
PG31 -22498.685633   4823.922557 -13479.597898    257.449127  7  7  7 120       
PG32 -14969.902058 -11036.518858 -18953.590646    -56.269277  5  4  9 125       
EOF
